SMDC ONE 2.4            
1 39469U 13072H   26068.55980652  .00015821  00000+0  65974-3 0  9996
2 39469 120.4883 328.0945 0137633 267.6479  90.8828 15.15767863102719
STARLINK-33627          
1 63068U 25035S   26068.26563111  .00022931  00000+0  84013-3 0  9990
2 63068  42.9957 149.5809 0000900 209.9613 150.1187 15.27583090 59654
